     2.10           NAVIGATION DATA     GPS(GPS)            RINEX VERSION / TYPE
cnvtToRINEX 2.11.0  Stan Thomas         31-Mar-11 19:14 UTC PGM / RUN BY / DATE 
----------------------------------------------------------- COMMENT             
    0.2142D-07  0.7451D-08 -0.1192D-06  0.0000D+00          ION ALPHA           
    0.1229D+06  0.0000D+00 -0.2621D+06  0.1966D+06          ION BETA            
    0.931322574615D-09-0.266453525910D-14   589824       93 DELTA-UTC: A0,A1,T,W
    15                                                      LEAP SECONDS        
                                                            END OF HEADER       
 3 11  3 30 20  0  0.0 0.695423223078D-03 0.511590769747D-11 0.000000000000D+00
    0.550000000000D+02-0.890937500000D+02 0.505128183474D-08 0.296010742397D+01
   -0.457465648651D-05 0.140488665784D-01 0.858493149281D-05 0.515365457344D+04
    0.331200000000D+06 0.109896063805D-06-0.103890811072D+01-0.109896063805D-06
    0.928398322259D+00 0.194781250000D+03 0.107984639854D+01-0.814855370568D-08
   -0.291797868838D-09 0.100000000000D+01 0.162900000000D+04 0.000000000000D+00
    0.240000000000D+01 0.000000000000D+00-0.419095158577D-08 0.550000000000D+02
    0.324138000000D+06 0.400000000000D+01 0.000000000000D+00 0.000000000000D+00
 6 11  3 30 20  0  0.0-0.208721961826D-03-0.117438503366D-09 0.000000000000D+00
    0.166000000000D+03-0.722500000000D+02 0.492234789269D-08-0.124953054159D+01
   -0.375322997570D-05 0.662018731236D-02 0.958517193794D-05 0.515365450859D+04
    0.331200000000D+06-0.912696123123D-07-0.965720798856D+00 0.353902578354D-07
    0.935611375901D+00 0.183656250000D+03-0.836027761238D+00-0.835499087605D-08
   -0.184293390845D-09 0.100000000000D+01 0.162900000000D+04 0.000000000000D+00
    0.240000000000D+01 0.000000000000D+00-0.465661287308D-08 0.166000000000D+03
    0.324138000000D+06 0.400000000000D+01 0.000000000000D+00 0.000000000000D+00
 9 11  3 30 20  0  0.0 0.708177685738D-04 0.227373675443D-11 0.000000000000D+00
    0.980000000000D+02 0.518750000000D+02 0.402445334892D-08 0.612784180189D+00
    0.276416540146D-05 0.171480583958D-01 0.974535942078D-05 0.515367727089D+04
    0.331200000000D+06-0.238418579102D-06-0.302812728346D+01-0.521540641785D-07
    0.983407253145D+00 0.208500000000D+03 0.155910555740D+01-0.810998067039D-08
    0.144648882349D-09 0.100000000000D+01 0.162900000000D+04 0.000000000000D+00
    0.485000000000D+01 0.000000000000D+00-0.558793544769D-08 0.980000000000D+02
    0.324138000000D+06 0.400000000000D+01 0.000000000000D+00 0.000000000000D+00
11 11  3 30 20  0  0.0-0.138694886118D-03-0.306954461848D-11 0.000000000000D+00
    0.500000000000D+02 0.163750000000D+02 0.603918012752D-08 0.141712951727D+01
    0.886619091034D-06 0.116672351724D-01 0.110119581223D-04 0.515350985336D+04
    0.331200000000D+06-0.204890966415D-06-0.116297566363D+00 0.782310962677D-07
    0.888479920938D+00 0.128687500000D+03 0.917775744929D+00-0.888394148039D-08
    0.242510101519D-09 0.100000000000D+01 0.162900000000D+04 0.000000000000D+00
    0.240000000000D+01 0.000000000000D+00-0.116415321827D-07 0.500000000000D+02
    0.324138000000D+06 0.400000000000D+01 0.000000000000D+00 0.000000000000D+00
14 11  3 30 20  0  0.0 0.140863936394D-03 0.238742359215D-11 0.000000000000D+00
    0.200000000000D+02-0.283437500000D+02 0.398052294762D-08-0.250021002392D+01
   -0.136345624924D-05 0.561842368916D-02 0.100154429674D-04 0.515364777184D+04
    0.331200000000D+06 0.132247805595D-06 0.228471585202D+01-0.167638063431D-07
    0.983203209720D+00 0.197281250000D+03-0.209283125857D+01-0.766139055624D-08
   -0.328585115460D-09 0.100000000000D+01 0.162900000000D+04 0.000000000000D+00
    0.240000000000D+01 0.000000000000D+00-0.884756445885D-08 0.200000000000D+02
    0.324138000000D+06 0.400000000000D+01 0.000000000000D+00 0.000000000000D+00
15 11  3 30 18  0  0.0-0.139134004712D-03 0.306954461848D-11 0.000000000000D+00
    0.290000000000D+02-0.313437500000D+02 0.481091467962D-08 0.233452026312D+01
   -0.151619315147D-05 0.340004044119D-02 0.940635800362D-05 0.515359229851D+04
    0.324000000000D+06-0.353902578354D-07 0.221083521647D+01 0.987201929092D-07
    0.950387086957D+00 0.194687500000D+03-0.676508793707D-01-0.812640992616D-08
   -0.397159400426D-09 0.100000000000D+01 0.162900000000D+04 0.000000000000D+00
    0.240000000000D+01 0.000000000000D+00-0.977888703346D-08 0.290000000000D+02
    0.316818000000D+06 0.400000000000D+01 0.000000000000D+00 0.000000000000D+00
16 11  3 30 18  0  0.0-0.161528121680D-03-0.272848410532D-11 0.000000000000D+00
    0.640000000000D+02-0.143437500000D+02 0.450518765915D-08-0.210296821293D+01
   -0.724568963051D-06 0.630995514803D-02 0.383146107197D-05 0.515377023506D+04
    0.324000000000D+06-0.614672899246D-07-0.192693454460D+01 0.372529029846D-08
    0.975226030079D+00 0.317000000000D+03-0.152536245953D+00-0.824355766298D-08
    0.571452374714D-10 0.100000000000D+01 0.162900000000D+04 0.000000000000D+00
    0.240000000000D+01 0.000000000000D+00-0.977888703346D-08 0.640000000000D+02
    0.316818000000D+06 0.400000000000D+01 0.000000000000D+00 0.000000000000D+00
18 11  3 30 20  0  0.0 0.129266176373D-03 0.204636307899D-11 0.000000000000D+00
    0.105000000000D+03 0.262500000000D+01 0.566559313755D-08-0.775481906323D+00
    0.346451997757D-06 0.120482438942D-01 0.393204391003D-05 0.515376556778D+04
    0.331200000000D+06 0.391155481339D-07 0.119860091388D+01 0.253319740295D-06
    0.933468512516D+00 0.288718750000D+03-0.226905617418D+01-0.884036823682D-08
   -0.207151485834D-10 0.100000000000D+01 0.162900000000D+04 0.000000000000D+00
    0.240000000000D+01 0.000000000000D+00-0.107102096081D-07 0.105000000000D+03
    0.324138000000D+06 0.400000000000D+01 0.000000000000D+00 0.000000000000D+00
19 11  3 30 20  0  0.0-0.125451479107D-03-0.386535248253D-11 0.000000000000D+00
    0.320000000000D+02-0.704687500000D+02 0.437196782429D-08-0.281336474761D+01
   -0.352598726749D-05 0.714036950376D-02 0.107996165752D-04 0.515364293861D+04
    0.331200000000D+06-0.633299350739D-07-0.829636785634D+00-0.558793544769D-08
    0.958606932524D+00 0.170718750000D+03-0.904284670515D-02-0.791497254752D-08
   -0.174292974288D-09 0.100000000000D+01 0.162900000000D+04 0.000000000000D+00
    0.240000000000D+01 0.000000000000D+00-0.149011611938D-07 0.320000000000D+02
    0.324138000000D+06 0.400000000000D+01 0.000000000000D+00 0.000000000000D+00
21 11  3 30 20  0  0.0-0.134046189487D-03-0.261479726760D-11 0.000000000000D+00
    0.280000000000D+02 0.535312500000D+02 0.518914472013D-08 0.502796148781D+00
    0.297091901302D-05 0.175443354528D-01 0.919774174690D-05 0.515377708435D+04
    0.331200000000D+06-0.191852450371D-06 0.144071455234D+00 0.335276126862D-06
    0.932328646248D+00 0.189781250000D+03-0.238802775583D+01-0.854785605251D-08
    0.277868717205D-09 0.100000000000D+01 0.162900000000D+04 0.000000000000D+00
    0.240000000000D+01 0.000000000000D+00-0.116415321827D-07 0.280000000000D+02
    0.324138000000D+06 0.400000000000D+01 0.000000000000D+00 0.000000000000D+00
22 11  3 30 20  0  0.0 0.150973442942D-03-0.682121026330D-12 0.000000000000D+00
    0.101000000000D+03 0.243750000000D+01 0.562166273625D-08-0.156700178647D+01
    0.210478901863D-06 0.544488488231D-02 0.394880771637D-05 0.515370295334D+04
    0.331200000000D+06 0.819563865662D-07 0.120285065432D+01 0.912696123123D-07
    0.931162182665D+00 0.285625000000D+03-0.196820311691D+01-0.866750389347D-08
    0.785747015231D-11 0.100000000000D+01 0.162900000000D+04 0.000000000000D+00
    0.340000000000D+01 0.000000000000D+00-0.172294676304D-07 0.101000000000D+03
    0.324138000000D+06 0.400000000000D+01 0.000000000000D+00 0.000000000000D+00
24 11  3 30 19 59 44.0 0.377595890313D-03 0.306954461848D-11 0.000000000000D+00
    0.900000000000D+01 0.472500000000D+02 0.473198282036D-08 0.231275973413D+01
    0.240467488766D-05 0.597903830931D-02 0.955723226070D-05 0.515372694969D+04
    0.331184000000D+06 0.465661287308D-07 0.187857096591D+00 0.147148966789D-06
    0.948920179500D+00 0.185156250000D+03-0.299299970771D+00-0.813569602725D-08
    0.424660545959D-09 0.100000000000D+01 0.162900000000D+04 0.000000000000D+00
    0.240000000000D+01 0.000000000000D+00-0.139698386192D-08 0.900000000000D+01
    0.324162000000D+06 0.400000000000D+01 0.000000000000D+00 0.000000000000D+00
26 11  3 30 15 59 12.0-0.159007962793D-03-0.102318153949D-10 0.000000000000D+00
    0.100000000000D+02-0.173125000000D+02 0.396016495677D-08 0.601761715665D+00
   -0.694766640663D-06 0.204361161450D-01 0.101365149021D-04 0.515364691925D+04
    0.316752000000D+06-0.249594449997D-06 0.230410354984D+01 0.763684511185D-07
    0.987797233308D+00 0.203468750000D+03 0.113176678021D+01-0.801890544817D-08
   -0.540379651839D-09 0.100000000000D+01 0.162900000000D+04 0.000000000000D+00
    0.240000000000D+01 0.000000000000D+00-0.651925802231D-08 0.100000000000D+02
    0.313998000000D+06 0.400000000000D+01 0.000000000000D+00 0.000000000000D+00
27 11  3 30 20  0  0.0 0.250819604844D-03 0.386535248253D-11 0.000000000000D+00
    0.700000000000D+02 0.680312500000D+02 0.385123184784D-08-0.257221892308D+01
    0.359676778316D-05 0.216661036247D-01 0.937655568123D-05 0.515369929695D+04
    0.331200000000D+06 0.949949026108D-07-0.305389014713D+01 0.247731804848D-06
    0.981000201385D+00 0.203312500000D+03-0.127132281883D+01-0.739316509786D-08
    0.301441127661D-09 0.100000000000D+01 0.162900000000D+04 0.000000000000D+00
    0.240000000000D+01 0.000000000000D+00-0.419095158577D-08 0.700000000000D+02
    0.324156000000D+06 0.400000000000D+01 0.000000000000D+00 0.000000000000D+00
